#dP2018  7  6  0  0  0.00000000      96 __u+U ITR00 FIT  IAC
## 2008 432000.00000000   900.00000000 58305 0.0000000000000
+   86   C01C02C03C04C05C06C07C08C09C10C11C12C13C14E01E02E03
+        E04E05E07E08E09E11E12E14E18E19E24E26E30G01G02G03G04
+        G05G06G07G08G09G10G11G12G13G14G15G16G17G18G19G20G21
+        G22G23G24G25G26G27G28G29G30G31G32J01R01R02R03R04R05
+        R07R08R09R10R11R13R14R15R16R17R18R19R20R21R22R23R24
+        R26  0  0  0  0  0  0  0  0  0  0  0  0  0  0  0  0
++         0  0  0  0  0  0  0  0  0  0  0  0  0  0  0  0  0
++         0  0  0  0  0  0  0  0  0  0  0  0  0  0  0  0  0
++         0  0  0  0  0  0  0  0  0  0  0  0  0  0  0  0  0
++         0  0  0  0  0  0  0  0  0  0  0  0  0  0  0  0  0
++         0  0  0  0  0  0  0  0  0  0  0  0  0  0  0  0  0
++         0  0  0  0  0  0  0  0  0  0  0  0  0  0  0  0  0
%c M  cc GPS ccc cccc cccc cccc cccc ccccc ccccc ccccc ccccc
%c cc cc ccc ccc cccc cccc cccc cccc ccccc ccccc ccccc ccccc
%f  0.0000000  0.000000000  0.00000000000  0.000000000000000
%f  0.0000000  0.000000000  0.00000000000  0.000000000000000
%i    0    0    0    0      0      0      0      0         0
%i    0    0    0    0      0      0      0      0         0
/*                                                          
/*   RSA / INFORMATION & ANALYSIS CENTER (IAC) OF MCC       
/*   ULTRA-RAPID DETERMINATION                              
/* PCV:IGS14_2000 OL/AL:FES2004  NONE     YN ORB:CoN CLK:CoN
*  2018 07 06 16  0  0.00000000
PC01 -32353.743235  27046.897732   -945.482570    305.016103
PC02   4360.619205  41935.923247    297.014997    -11.869759
PC03 -14713.170534  39502.385396   -981.975280    394.135712
PC04 -39601.837666  14447.026468   -687.326452   -274.928218
PC05  21947.364674  36011.665457    366.680753    319.796662
PC06 -11871.453929  21866.322298  34319.243758     86.172556
PC07 -25347.621951  31612.292060 -12385.063375     78.781707
PC08  -8917.599228  35869.696847 -20023.520952    425.439965
PC09   3440.149103  27617.675205  31949.464332     26.280172
PC10 -10990.807638  32528.533427 -24590.864423   -365.255019
PC11  15749.844504  22972.636271    901.263210   -579.944092
PC12   1810.222240  22376.567133 -16467.774988    504.973491
PC13  -1262.924122  41133.422933  -8568.567937   -165.667404
PC14  13935.664194  13282.564098  20282.540327    191.950632
PE01 -21176.271745  20670.294342   -953.390152   -384.837889
PE02  21156.426639 -20676.894849    980.015897     18.498282
PE03  17459.748913 -10577.608305 -21420.639862    -51.430205
PE04   3702.458488  18274.367786  23002.715228    -69.722678
PE05  28492.712621   3356.353599  -7277.387722    233.432274
PE07 -22827.812382 -15260.778925 -11047.173459      2.694908
PE08  -3928.467244 -18097.997772 -23081.315660   6549.616353
PE09  22934.294949  15016.774336  11165.262423   6742.705251
PE11  14579.471436  21966.118884  13470.022024   2086.612866
PE12   3182.552714  28928.901118  -5463.332573   4541.936911
PE14 -12685.277905 -20313.946757   6882.537891   6555.598093
PE18   5771.903537  25982.289599 -17171.781064   6079.350140
PE19 -19033.949105   9391.268014  20641.821100     23.933960
PE24  12039.033728  10957.685084 -24732.689904   6615.181234
PE26 -17242.017870  -2592.519061 -23922.324442   5740.447505
PE30   6499.358706 -22372.952625  18247.704594   5700.151739
PG01  13320.346335 -17732.632309  14226.244504    -63.120712
PG02 -14528.975004  -5064.371771 -21108.577473     65.422165
PG03  21370.655632 -13483.344879  -8099.195862    101.311131
PG04  12561.947142  10847.924764 -21052.515637     75.928924
PG05 -24249.145158    543.039026 -11173.863605     -5.014826
PG06  -7550.876290 -19676.899172 -16117.019468    389.724775
PG07   5288.034850 -25766.487503     38.309897    163.410571
PG08  19288.159508   -295.710318  18366.825681   -107.244655
PG09   1098.866151 -17561.536838 -19918.824195    514.110874
PG10   6613.934269  13782.070585  21770.342252    188.873218
PG11  11795.781911 -13899.948791  18807.359729   -731.213409
PG12 -24197.397712   9838.038084  -4407.408183    322.748860
PG13 -20914.011685  -8993.783111  13578.155383    -92.746391
PG14  19019.025955  18664.891007   -414.146391    -97.580907
PG15 -18334.176404   4054.058870  18707.454946   -351.296324
PG16  23859.607673   2030.585786 -12090.694796     18.798513
PG17 -13603.631029 -21202.395826   8993.825353    -81.018402
PG18  15171.772594  -9430.285367  19132.597634     30.355192
PG19 -18549.065318 -18884.515559   -496.719833   -422.630658
PG20  -3551.093844  17729.178604  19311.116699    511.904184
PG21   -649.967009  26365.372617   4048.986741   -371.367866
PG22  24638.124208  -9888.209973    582.388311   -449.186665
PG23  12564.329134  -9487.821466 -21132.774194   -214.887195
PG24 -14406.018230  14413.117091  16762.455872    -52.193861
PG25 -13757.279776  16237.850310 -15923.831965   -611.976281
PG26  16863.001062   8007.340256 -18954.285582    -92.459004
PG27  22476.901786  10632.043988   9616.116766    362.496019
PG28  -2412.358103 -14803.212760  22543.854187    729.211022
PG29  -3746.679862  15838.281242 -21017.614324    419.664228
PG30  -1270.349585 -24620.247217   9668.974034     53.881473
PG31   8465.519141  17938.938308 -17419.000994    109.605513
PG32  14662.124461  20438.738832   8710.559466   -480.622694
PJ01 -29465.539781  27122.640865  18417.461365   -190.765723
PR01 -22047.995538   3701.474954  12305.750880     28.680140
PR02  -4142.846786  10452.422502  22936.661002    318.329832
PR03  14697.239173  10438.124486  18111.199528    136.954472
PR04  25090.921003   4034.810581   2310.954104    267.506886
PR05  20633.453755  -4802.854219 -14202.575481    -35.727583
PR07 -15067.991489 -10319.438953 -17751.534273    -41.770575
PR08 -24969.287889  -4324.932393  -2846.579617     22.395911
PR09  10251.426678 -21196.283489   9736.766328     16.737532
PR10  -2198.128071 -13418.345394  21540.488052     27.373975
PR11 -14381.911357   2374.922017  20960.270984    -33.748807
PR13 -10072.199768  21356.697064  -9685.099427    -12.186131
PR14   2261.461998  13745.362837 -21362.046343     28.822298
PR15  12019.323775   1296.925471 -22467.737366    -12.793648
PR16  17349.888478 -16460.031098  -9040.753991     96.387998
PR17  10818.285968  22973.898060   2232.689341    145.774749
PR18  13896.150606  12467.379501  17421.752463    201.934987
PR19   9278.281180  -5033.751372  23215.627777    -56.005098
PR20  -1138.600393 -20791.455748  14698.396927   -344.168097
PR21 -10982.415906 -22888.576501  -2609.276994      8.511970
PR22 -13624.969371 -10431.807404 -18820.866071    -55.145945
PR23  -7291.584374   9198.370608 -22660.644574    164.089454
PR24   2106.735874  21317.255287 -13893.205119   -168.538546
PR26   -965.201757 -20316.149499  15415.103121     31.737629
EOF
